OUFTI-1                 
1 41458U 16025C   22163.71582224  .00006800  00000+0  29239-3 0  9992
2 41458  98.1854 329.9478 0141230 281.1686  77.3694 15.14386307336864
E-ST@R-II               
1 41459U 16025D   22163.92659321  .00005050  00000+0  22311-3 0  9999
2 41459  98.1846 328.7449 0144289 284.6444  73.8858 15.13326731336810
AAUSAT 4                
1 41460U 16025E   22163.92941185  .00010304  00000+0  40119-3 0  9997
2 41460  98.1795 334.9067 0125552 260.8362  97.8662 15.19119272337251
AIST-2D (RS-48)         
1 41465U 16026B   22163.57405843  .00008831  00000+0  21331-3 0  9997
2 41465  97.0575  40.0826 0010845 140.8544 278.2890 15.41335902342782
NUSAT-1 (FRESCO)        
1 41557U 16033B   22163.82143529  .00008793  00000+0  26435-3 0  9992
2 41557  97.3877 261.5100 0011441  42.2785  75.1175 15.34572318336679
NUSAT-2 (BATATA)        
1 41558U 16033C   22163.79676106  .00008266  00000+0  23403-3 0  9998
2 41558  97.4071 267.1607 0010593  31.9960 125.0112 15.36492350336932
CARTOSAT-2C             
1 41599U 16040A   22163.80837627  .00002400  00000+0  11694-3 0  9993
2 41599  97.4865 223.4510 0013640 193.6720 302.3991 15.19250414331228
SATHYABAMASAT           
1 41600U 16040B   22163.64868964  .00014527  00000+0  46215-3 0  9996
2 41600  97.2206 216.1842 0013052 134.2986 225.9329 15.32611678332164
LAPAN-A3                
1 41603U 16040E   22163.76742194  .00000961  00000+0  46697-4 0  9990
2 41603  97.2060 200.9999 0013395 169.7686 301.7904 15.20656565331329
BIROS                   
1 41604U 16040F   22163.86436463  .00003279  00000+0  13674-3 0  9994
2 41604  97.2108 208.4421 0012904 143.0244 217.1886 15.24291791331763
SWAYAM                  
1 41607U 16040J   22163.66185930  .00012724  00000+0  41614-3 0  9995
2 41607  97.2163 214.4993 0012924 134.9845 225.2447 15.31755204332043
BEESAT-4                
1 41619U 16040W   22163.86724150  .00012956  00000+0  43425-3 0  9992
2 41619  97.2172 214.6189 0011336 129.1784 231.0466 15.30978742320023
3CAT-2                  
1 41732U 16051B   22163.78812529  .00007775  00000+0  24271-3 0  9990
2 41732  97.3815  86.8879 0009801 316.4364 102.4044 15.33436364324612
PRATHAM                 
1 41783U 16059A   22163.84604010  .00000362  00000+0  78433-4 0  9990
2 41783  97.9134 205.5858 0033311 186.0508 174.0297 14.63352207304954
ALSAT 1N                
1 41789U 16059G   22163.90988353  .00000337  00000+0  71744-4 0  9998
2 41789  97.9165 210.2065 0028536 168.4689 191.7177 14.64682221305209
LISHUI 1-01             
1 41845U 16066E   22163.94156929  .00048440  00000+0  49544-2 0  9997
2 41845  98.7383 294.6331 0221994  83.9565 278.6921 14.73811305296165
CARTOSAT-2D             
1 41948U 17008A   22163.75112855  .00002463  00000+0  12017-3 0  9998
2 41948  97.4649 223.4603 0005901 354.0898   6.0280 15.19229604295088
NAYIF-1 (EO-88)         
1 42017U 17008BX  22163.73907136  .00013224  00000+0  39821-3 0  9997
2 42017  97.2696 229.9211 0003579 246.5840 113.5027 15.34462939296354
ZHUHAI-1 02 (CAS-4B)    
1 42759U 17034B   22163.82632330  .00002593  00000+0  16171-3 0  9990
2 42759  43.0193 358.2070 0010240 263.8587 218.0001 15.11864438275658
ZHUHAI-1 01 (CAS-4A)    
1 42761U 17034D   22163.84295523  .00002750  00000+0  17028-3 0  9991
2 42761  43.0193 356.9057 0010719 265.5020 110.6461 15.11957656275666
UCLSAT                  
1 42765U 17036A   22163.87565637  .00010873  00000+0  38037-3 0  9994
2 42765  97.1974 206.6829 0008406 352.5866   7.5249 15.29659723277157
NIUSAT                  
1 42766U 17036B   22163.87191379  .00007885  00000+0  30609-3 0  9999
2 42766  97.2019 201.8566 0012829 351.6037   8.4985 15.26276640276109
CARTOSAT-2E             
1 42767U 17036C   22163.79489759  .00002471  00000+0  12044-3 0  9992
2 42767  97.4541 224.3573 0007790  44.9156  92.4431 15.19241176275651
LITUANICASAT-2          
1 42768U 17036D   22163.84007347  .00022488  00000+0  65595-3 0  9997
2 42768  97.2062 209.2952 0008510 328.7506  31.3231 15.35324513276548
AALTO-1                 
1 42775U 17036L   22163.84196125  .00006186  00000+0  24604-3 0  9991
2 42775  97.1975 201.7595 0011791 351.7204   8.3838 15.25562983276073
URSA MAIOR              
1 42776U 17036M   22163.82456705  .00006611  00000+0  25851-3 0  9991
2 42776  97.1989 202.4658 0011412 350.7080   9.3946 15.26108472276103
COMPASS 2               
1 42777U 17036N   22163.85692414  .00016215  00000+0  52020-3 0  9993
2 42777  97.2047 208.7065 0007937 336.6239  23.4642 15.32371806276444
MAX VALIER SAT          
1 42778U 17036P   22163.86732097  .00007812  00000+0  29775-3 0  9991
2 42778  97.2053 205.1258 0010021 353.5381   6.5728 15.26918195276203
PEGASUS                 
1 42784U 17036V   22163.86043660  .00010173  00000+0  36574-3 0  9998
2 42784  97.1993 205.9407 0009315 354.6064   5.5074 15.28775720276312
NUDTSAT                 
1 42787U 17036Y   22163.92708127  .00013758  00000+0  42708-3 0  9992
2 42787  97.2029 210.0637 0006947 342.2892  17.8117 15.33466255276408
SUCHAI                  
1 42788U 17036Z   22163.60019188  .00011577  00000+0  39432-3 0  9997
2 42788  97.2002 207.3061 0008328 351.1440   8.9653 15.30514493276448
SKCUBE                  
1 42789U 17036AA  22163.85611981  .00011052  00000+0  38505-3 0  9992
2 42789  97.1998 207.0278 0008456 351.2812   8.8281 15.29789269276376
VZLUSAT-1               
1 42790U 17036AB  22163.86892858  .00017275  00000+0  53758-3 0  9999
2 42790  97.2025 209.9769 0006817 343.0454  17.0560 15.33340790276544
ROBUSTA-1B              
1 42792U 17036AD  22163.61714649  .00010499  00000+0  36048-3 0  9999
2 42792  97.1996 207.3538 0008035 352.6632   7.4490 15.30279530276383
D-SAT                   
1 42794U 17036AF  22163.58754689  .00002063  00000+0  17719-3 0  9997
2 42794  97.4510 169.2557 0124916 101.3548 260.1736 14.92599993270750
NORSAT 2                
1 42828U 17042D   22163.86869550  .00001662  00000+0  16551-3 0  9994
2 42828  97.4307  20.4825 0014722  25.7727 334.4224 14.92808282267486
TECHNOSAT               
1 42829U 17042E   22163.85793983  .00000971  00000+0  10109-3 0  9995
2 42829  97.4217  18.2650 0014761  28.9723 331.2313 14.91851667267402
2017-042F               
1 42830U 17042F   22163.57731136  .00003195  00000+0  29716-3 0  9993
2 42830  97.4363  22.3493 0014054  20.1872 339.9902 14.94920413267555
FLYING LAPTOP           
1 42831U 17042G   22163.76714808  .00001112  00000+0  11532-3 0  9996
2 42831  97.4246  18.4984 0014597  30.0513 330.1532 14.91777971267391
CORVUS BC2              
1 42846U 17042X   22163.85806719  .00000881  00000+0  89967-4 0  9995
2 42846  97.4236  21.4279 0009968  21.8407 338.3236 14.92884215267597
CORVUS BC1              
1 42847U 17042Y   22163.87196072  .00001106  00000+0  11141-3 0  9991
2 42847  97.4238  21.7460 0009589  21.1294 339.0321 14.92988267267608
SIMPL                   
1 42983U 98067NF  22163.61573614  .00135724  18606-4  31059-3 0  9991
2 42983  51.6274 207.2248 0006621 352.0380   8.0522 15.97074477264161
CZ-4C R/B               
1 43012U 17072C   22163.80591554  .00000190  00000+0  50321-4 0  9992
2 43012  98.6975 199.7209 0126644 332.2087  27.2381 14.56347063243181
RADFXSAT (FOX-1B)       
1 43017U 17073E   22163.71093105  .00001854  00000+0  14411-3 0  9994
2 43017  97.6761  58.0988 0248104 203.0773 155.9143 14.81363981246411
EAGLESAT 1              
1 43018U 17073F   22163.66136074  .00003392  00000+0  25043-3 0  9994
2 43018  97.6795  59.8005 0240993 197.2504 162.0418 14.83565192246382
INS-1C                  
1 43116U 18004F   22163.73875451  .00009122  00000+0  31776-3 0  9992
2 43116  97.3767 239.7930 0007692  22.3040 337.8534 15.29860452245617
FLOCK 3P'-3             
1 43119U 18004J   22163.71446942  .00004061  00000+0  15542-3 0  9992
2 43119  97.3756 237.8252 0009625  31.5836 328.5979 15.27092509245491
FLOCK 3P'-2             
1 43120U 18004K   22163.85110274  .00004968  00000+0  19206-3 0  9992
2 43120  97.3762 237.5771 0009446  32.9484 327.2341 15.26648688245480
FLOCK 3P'-1             
1 43121U 18004L   22163.85891442  .00020167  00000+0  57077-3 0  9993
2 43121  97.3780 242.3819 0005880  13.4331 346.7068 15.36314468245738
FLOCK 3P'-4             
1 43122U 18004M   22163.64085152  .00004550  00000+0  17610-3 0  9991
2 43122  97.3770 237.5374 0009447  35.9246 324.2626 15.26655717245451
MICROMAS-2A             
1 43131U 18004W   22163.79294150  .00019234  00000+0  54932-3 0  9990
2 43131  97.3763 243.0595 0005526  19.7077 340.4380 15.36042697245866
PICSAT                  
1 43132U 18004X   22163.78865207  .00009998  00000+0  33294-3 0  9991
2 43132  97.3726 240.1912 0007533  27.8906 332.2737 15.31296615245690
CNUSAIL-1               
1 43133U 18004Y   22163.84842243  .00007464  00000+0  27114-3 0  9994
2 43133  97.3684 238.2621 0008570  31.0671 329.1074 15.28546876245598
2018-004Z               
1 43134U 18004Z   22163.72060523  .00009032  00000+0  31236-3 0  9998
2 43134  97.3711 239.4148 0007917  29.5455 330.6232 15.30098375245641
FOX-1D (AO-92)          
1 43137U 18004AC  22163.18823359  .00006812  00000+0  24220-3 0  9993
2 43137  97.3692 238.3917 0008001  33.2791 326.8950 15.29286528245544
STEP CUBE LAB           
1 43138U 18004AD  22163.71156531  .00015485  00000+0  46974-3 0  9990
2 43138  97.3762 242.3811 0006253  26.0377 334.1180 15.34183645245817
XIAOXIANG-2             
1 43155U 18008A   22163.88128543  .00005034  00000+0  27003-3 0  9994
2 43155  97.3526 222.4255 0017276 155.7065 319.6455 15.15269127242589
ZHOU ENLAI              
1 43156U 18008B   22163.90639535  .00005534  00000+0  29866-3 0  9990
2 43156  97.3568 222.3239 0014505 155.1682  17.0791 15.15048874242517
QUANTUTONG 1            
1 43158U 18008D   22163.67852112  .00004489  00000+0  25015-3 0  9994
2 43158  97.3527 220.0929 0013494 155.5191 324.2708 15.14019316242384
